[{"OBJECT_NAME":"UHETSAT","OBJECT_ID":"2023-185E","EPOCH":"2026-03-09T22:39:26.455680","MEAN_MOTION":15.29797662,"ECCENTRICITY":0.00118435,"INCLINATION":97.3584,"RA_OF_ASC_NODE":137.3576,"ARG_OF_PERICENTER":307.7346,"MEAN_ANOMALY":52.2821,"EPHEMERIS_TYPE":0,"CLASSIFICATION_TYPE":"U","NORAD_CAT_ID":58466,"ELEMENT_SET_NO":999,"REV_AT_EPOCH":12611,"BSTAR":0.00030513019,"MEAN_MOTION_DOT":8.749e-5,"MEAN_MOTION_DDOT":0},{"OBJECT_NAME":"STARLINK-36117","OBJECT_ID":"2025-281T","EPOCH":"2026-03-09T04:40:41.485440","MEAN_MOTION":15.27600059,"ECCENTRICITY":0.00017098,"INCLINATION":43.0016,"RA_OF_ASC_NODE":345.9355,"ARG_OF_PERICENTER":245.5337,"MEAN_ANOMALY":114.5336,"EPHEMERIS_TYPE":0,"CLASSIFICATION_TYPE":"U","NORAD_CAT_ID":66865,"ELEMENT_SET_NO":999,"REV_AT_EPOCH":1611,"BSTAR":0.00093133944,"MEAN_MOTION_DOT":0.00025471,"MEAN_MOTION_DDOT":0}]
